{"_default": { "13": {"norad_id": "41847", "name": "CZ-11 R/B", "tle1": "1 41847U 16066G   26199.82160718  .00000428  00000-0  68600-4 0  9991", "tle2": "2 41847  98.3812 275.1958 0342070  33.7721 328.4756 14.44774190509362", "object_type": "ROCKET_BODY", "criticality_score": 9.0, "last_updated": "2026-07-19T02:53:59.007202+00:00", "maneuver_count": 0, "owner": "PRC"}, "14": {"norad_id": "41789", "name": "ALSAT 1N", "tle1": "1 41789U 16059G   26199.84994759  .00000353  00000-0  67303-4 0  9996", "tle2": "2 41789  97.8013 201.7926 0027473  86.6217 273.8131 14.69352119524657", "object_type": "PAYLOAD", "criticality_score": 9.0, "last_updated": "2026-07-19T02:53:59.007202+00:00", "maneuver_count": 0, "owner": "ALG"}, "15": {"norad_id": "41599", "name": "CARTOSAT 2C", "tle1": "1 41599U 16040A   26199.80709855  .00001508  00000-0  74653-4 0  9991", "tle2": "2 41599  97.4462 259.3470 0009318  34.1348 326.0484 15.19278517558513", "object_type": "PAYLOAD", "criticality_score": 9.0, "last_updated": "2026-07-19T02:53:59.007202+00:00", "maneuver_count": 0, "owner": "IND"}, "47": {"norad_id": "41339", "name": "CHUBUSAT 3", "tle1": "1 41339U 16012C   26199.88370198  .00002517  00000-0  11298-3 0  9990", "tle2": "2 41339  31.0042 123.6804 0008960  25.9590 334.1499 15.18785129573026", "object_type": "PAYLOAD", "criticality_score": 9.0, "last_updated": "2026-07-19T02:53:59.007202+00:00", "maneuver_count": 0, "owner": "JPN"}, "49": {"norad_id": "40967", "name": "FOX-1", "tle1": "1 40967U 15058D   26199.67501654  .00001565  00000-0  14854-3 0  9998", "tle2": "2 40967  64.7726 181.1175 0132657  44.4905 316.6768 14.91100292118268", "object_type": "PAYLOAD", "criticality_score": 9.0, "last_updated": "2026-07-19T02:53:59.007202+00:00", "maneuver_count": 0, "owner": "US"}, "50": {"norad_id": "40958", "name": "LQSAT", "tle1": "1 40958U 15057A   26199.91484861 -.00000041  00000-0  10082-5 0  9994", "tle2": "2 40958  97.6698 191.7222 0017199 164.0278 196.1479 14.76815047579991", "object_type": "PAYLOAD", "criticality_score": 9.0, "last_updated": "2026-07-19T02:53:59.007202+00:00", "maneuver_count": 0, "owner": "PRC"}, "108": {"norad_id": "41948", "name": "CARTOSAT 2D", "tle1": "1 41948U 17008A   26199.83882014  .00001957  00000-0  95883-4 0  9992", "tle2": "2 41948  97.4085 258.5503 0006221 128.3918 231.7876 15.19298717522386", "object_type": "PAYLOAD", "criticality_score": 9.0, "last_updated": "2026-07-19T02:53:59.007202+00:00", "maneuver_count": 0, "owner": "IND"}, "109": {"norad_id": "41783", "name": "PRATHAM", "tle1": "1 41783U 16059A   26199.47824487  .00000288  00000-0  59038-4 0  9992", "tle2": "2 41783  97.8339 194.9636 0032584 117.7311 242.7206 14.67228361524100", "object_type": "PAYLOAD", "criticality_score": 9.0, "last_updated": "2026-07-19T02:53:59.007202+00:00", "maneuver_count": 0, "owner": "IND"}, "138": {"norad_id": "41603", "name": "LAPAN A3", "tle1": "1 41603U 16040E   26199.84478531  .00001573  00000-0  51204-4 0  9994", "tle2": "2 41603  97.1507 194.9570 0008275 259.9954 100.0355 15.33290417559665", "object_type": "PAYLOAD", "criticality_score": 9.0, "last_updated": "2026-07-19T02:53:59.007202+00:00", "maneuver_count": 0, "owner": "INDO"}, "140": {"norad_id": "41338", "name": "CHUBUSAT 2", "tle1": "1 41338U 16012B   26199.84010677  .00003023  00000-0  12738-3 0  9991", "tle2": "2 41338  30.9970 113.6173 0008479  39.8878 320.2385 15.21163358573241", "object_type": "PAYLOAD", "criticality_score": 9.0, "last_updated": "2026-07-19T02:53:59.007202+00:00", "maneuver_count": 0, "owner": "JPN"}, "187": {"norad_id": "40959", "name": "LINGQIAO VIDEO A", "tle1": "1 40959U 15057B   26199.85480837 -.00000147  00000-0 -13878-4 0  9990", "tle2": "2 40959  97.6637 193.0976 0017033 161.1924 198.9920 14.77427241580088", "object_type": "PAYLOAD", "criticality_score": 9.0, "last_updated": "2026-07-19T02:53:59.007202+00:00", "maneuver_count": 0, "owner": "PRC"}, "188": {"norad_id": "40960", "name": "LINGQIAO VIDEO B", "tle1": "1 40960U 15057C   26199.82921145  .00000573  00000-0  86861-4 0  9994", "tle2": "2 40960  97.6602 194.2283 0017202 161.3242 198.8604 14.77535588580126", "object_type": "PAYLOAD", "criticality_score": 9.0, "last_updated": "2026-07-19T02:53:59.007202+00:00", "maneuver_count": 0, "owner": "PRC"}, "189": {"norad_id": "41914", "name": "JILIN-1-03", "tle1": "1 41914U 17002B   26199.82456933  .00007695  00000-0  18060-3 0  9991", "tle2": "2 41914  97.1955 206.4795 0007676  69.6897 290.5175 15.42287847526731", "object_type": "PAYLOAD", "criticality_score": 9.0, "last_updated": "2026-07-19T02:53:59.007202+00:00", "maneuver_count": 0, "owner": "PRC"}, "190": {"norad_id": "40961", "name": "JILIN 1", "tle1": "1 40961U 15057D   26199.82852288  .00000350  00000-0  54850-4 0  9992", "tle2": "2 40961  97.6521 197.6269 0017541 155.3968 204.8084 14.78204437580286", "object_type": "PAYLOAD", "criticality_score": 9.0, "last_updated": "2026-07-19T02:53:59.007202+00:00", "maneuver_count": 0, "owner": "PRC"}, "369": {"norad_id": "41105", "name": "ELEKTRO-L 2", "tle1": "1 41105U 15074A   26199.40558459 -.00000128  00000-0  00000-0 0  9997", "tle2": "2 41105   6.7707  70.1389 0000958 220.4397 137.1429  1.00272087 38811", "object_type": "PAYLOAD", "criticality_score": 9.0, "last_updated": "2026-07-19T02:53:59.007202+00:00", "maneuver_count": 0, "owner": "CIS"}, "413": {"norad_id": "41556", "name": "ZY 3 2", "tle1": "1 41556U 16033A   26199.89269007  .00002660  00000-0  12118-3 0  9992", "tle2": "2 41556  97.3822 275.0577 0014464 172.1334 188.0132 15.21454758562803", "object_type": "PAYLOAD", "criticality_score": 9.0, "last_updated": "2026-07-19T02:53:59.007202+00:00", "maneuver_count": 0, "owner": "PRC"}, "432": {"norad_id": "41898", "name": "TANSAT", "tle1": "1 41898U 16081A   26199.84320295  .00000072  00000-0  25621-4 0  9995", "tle2": "2 41898  98.5374 201.0383 0019637 208.2761 151.7374 14.59972534509244", "object_type": "PAYLOAD", "criticality_score": 9.0, "last_updated": "2026-07-19T02:53:59.007202+00:00", "maneuver_count": 0, "owner": "PRC"}, "436": {"norad_id": "41727", "name": "GAOFEN 3", "tle1": "1 41727U 16049A   26199.85907050 -.00000117  00000-0 -22376-4 0  9997", "tle2": "2 41727  98.4016 207.1676 0001761  83.8125 276.3266 14.42218498523210", "object_type": "PAYLOAD", "criticality_score": 9.0, "last_updated": "2026-07-19T02:53:59.007202+00:00", "maneuver_count": 0, "owner": "PRC"}, "464": {"norad_id": "41179", "name": "ORBCOMM FM 114", "tle1": "1 41179U 15081A   26199.75609753  .00000053  00000-0  47434-4 0  9990", "tle2": "2 41179  47.0030 212.7473 0002829 321.9164  38.1521 14.58888935562362", "object_type": "PAYLOAD", "criticality_score": 9.0, "last_updated": "2026-07-19T02:53:59.007202+00:00", "maneuver_count": 0, "owner": "ORB"}, "465": {"norad_id": "41182", "name": "ORBCOMM FM 110", "tle1": "1 41182U 15081D   26199.74388897  .00000150  00000-0  67986-4 0  9998", "tle2": "2 41182  47.0001 212.2290 0003700 236.8284 123.2247 14.58920686562239", "object_type": "PAYLOAD", "criticality_score": 9.0, "last_updated": "2026-07-19T02:53:59.007202+00:00", "maneuver_count": 0, "owner": "ORB"}, "466": {"norad_id": "41188", "name": "ORBCOMM FM 117", "tle1": "1 41188U 15081K   26199.55073342  .00000182  00000-0  74763-4 0  9995", "tle2": "2 41188  47.0021  32.5320 0002841 343.0529  17.0261 14.58900026564708", "object_type": "PAYLOAD", "criticality_score": 9.0, "last_updated": "2026-07-19T02:53:59.007202+00:00", "maneuver_count": 0, "owner": "ORB"}, "467": {"norad_id": "41189", "name": "ORBCOMM FM 116", "tle1": "1 41189U 15081L   26199.80478909  .00000134  00000-0  64433-4 0  9992", "tle2": "2 41189  47.0017 121.1198 0001663 239.3508 120.7214 14.58908627563554", "object_type": "PAYLOAD", "criticality_score": 9.0, "last_updated": "2026-07-19T02:53:59.007202+00:00", "maneuver_count": 0, "owner": "ORB"}, "468": {"norad_id": "41185", "name": "ORBCOMM FM 113", "tle1": "1 41185U 15081G   26199.82849645  .00000116  00000-0  60795-4 0  9996", "tle2": "2 41185  47.0003 121.0107 0002026 335.5015  24.5774 14.58884118563550", "object_type": "PAYLOAD", "criticality_score": 9.0, "last_updated": "2026-07-19T02:53:59.007202+00:00", "maneuver_count": 0, "owner": "ORB"}, "469": {"norad_id": "41184", "name": "ORBCOMM FM 112", "tle1": "1 41184U 15081F   26199.85075600  .00000245  00000-0  88027-4 0  9991", "tle2": "2 41184  46.9987 120.5123 0003476 344.3892  15.6886 14.58941434563573", "object_type": "PAYLOAD", "criticality_score": 9.0, "last_updated": "2026-07-19T02:53:59.007202+00:00", "maneuver_count": 0, "owner": "ORB"}, "470": {"norad_id": "41187", "name": "ORBCOMM FM 108", "tle1": "1 41187U 15081J   26199.58496943  .00000195  00000-0  77500-4 0  9999", "tle2": "2 41187  47.0057  33.7439 0002435 335.1382  24.9386 14.58913023564669", "object_type": "PAYLOAD", "criticality_score": 9.0, "last_updated": "2026-07-19T02:53:59.007202+00:00", "maneuver_count": 0, "owner": "ORB"}, "476": {"norad_id": "41877", "name": "RESOURCESAT 2A", "tle1": "1 41877U 16074A   26199.81326743  .00000177  00000-0  10097-3 0  9991", "tle2": "2 41877  98.7515 273.0574 0002178  19.5923 340.5337 14.21609994498796", "object_type": "PAYLOAD", "criticality_score": 9.0, "last_updated": "2026-07-19T02:53:59.007202+00:00", "maneuver_count": 0, "owner": "IND"}, "607": {"norad_id": "40922", "name": "COSMOS 2509", "tle1": "1 40922U 15050C   26199.84296209 -.00000065  00000-0 -54250-3 0  9997", "tle2": "2 40922  82.4859  58.5558 0014432 336.1227  23.9182 12.42884485490812", "object_type": "PAYLOAD", "criticality_score": 9.0, "last_updated": "2026-07-19T02:53:59.007202+00:00", "maneuver_count": 0, "owner": "CIS"}, "631": {"norad_id": "41857", "name": "YUNHAI 1", "tle1": "1 41857U 16068A   26199.87510844  .00000020  00000-0  23369-4 0  9999", "tle2": "2 41857  98.5847 210.5885 0002929 336.7460  23.3591 14.32723408506365", "object_type": "PAYLOAD", "criticality_score": 9.0, "last_updated": "2026-07-19T02:53:59.007202+00:00", "maneuver_count": 0, "owner": "PRC"}, "664": {"norad_id": "41173", "name": "DAMPE", "tle1": "1 41173U 15078A   26199.87104728  .00000611  00000-0  23064-4 0  9998", "tle2": "2 41173  97.4563 205.4963 0011177 332.1617  27.9025 15.30858431589398", "object_type": "PAYLOAD", "criticality_score": 9.0, "last_updated": "2026-07-19T02:53:59.007202+00:00", "maneuver_count": 0, "owner": "PRC"}}}