OBJECT_NAME,OBJECT_ID,EPOCH,MEAN_MOTION,ECCENTRICITY,INCLINATION,RA_OF_ASC_NODE,ARG_OF_PERICENTER,MEAN_ANOMALY,EPHEMERIS_TYPE,CLASSIFICATION_TYPE,NORAD_CAT_ID,ELEMENT_SET_NO,REV_AT_EPOCH,BSTAR,MEAN_MOTION_DOT,MEAN_MOTION_DDOT
COSMOS 2509 (RODNIK-S 15),2015-050C,2026-07-18T20:13:51.924576,12.42884485,.0014432,82.4859,58.5558,336.1227,23.9182,0,U,40922,999,49081,-.5425E-3,-.65E-6,0
LQSAT,2015-057A,2026-07-18T21:57:22.919904,14.76815047,.0017199,97.6698,191.7222,164.0278,196.1479,0,U,40958,999,57999,.10082E-5,-.41E-6,0
LINGQIAO VIDEO A,2015-057B,2026-07-18T20:30:55.443168,14.77427241,.0017033,97.6637,193.0976,161.1924,198.9920,0,U,40959,999,58008,-.13878E-4,-.147E-5,0
LINGQIAO VIDEO B,2015-057C,2026-07-18T19:54:03.869280,14.77535588,.0017202,97.6602,194.2283,161.3242,198.8604,0,U,40960,999,58012,.86861E-4,.573E-5,0
JILIN-1,2015-057D,2026-07-18T19:53:04.376832,14.78204437,.0017541,97.6521,197.6269,155.3968,204.8084,0,U,40961,999,58028,.5485E-4,.35E-5,0
FOX-1A (AO-85),2015-058D,2026-07-18T16:12:01.429056,14.91100292,.0132657,64.7726,181.1175,44.4905,316.6768,0,U,40967,999,11826,.14854E-3,.1565E-4,0
ELEKTRO-L 2,2015-074A,2026-07-18T09:44:02.508576,1.00272087,.00009578,6.7707,70.1389,220.4397,137.1429,0,U,41105,999,3881,0,-.128E-5,0
DAMPE,2015-078A,2026-07-18T20:54:18.484992,15.30858431,.0011177,97.4563,205.4963,332.1617,27.9025,0,U,41173,999,58939,.23064E-4,.611E-5,0
ORBCOMM FM114,2015-081A,2026-07-18T18:08:46.826592,14.58888935,.0002829,47.0030,212.7473,321.9164,38.1521,0,U,41179,999,56236,.47434E-4,.53E-6,0
ORBCOMM FM110,2015-081D,2026-07-18T17:51:12.007008,14.58920686,.00037,47.0001,212.2290,236.8284,123.2247,0,U,41182,999,56223,.67986E-4,.15E-5,0
ORBCOMM FM112,2015-081F,2026-07-18T20:25:05.318400,14.58941434,.0003476,46.9987,120.5123,344.3892,15.6886,0,U,41184,999,56357,.88027E-4,.245E-5,0
ORBCOMM FM113,2015-081G,2026-07-18T19:53:02.093280,14.58884118,.0002026,47.0003,121.0107,335.5015,24.5774,0,U,41185,999,56355,.60795E-4,.116E-5,0
ORBCOMM FM108,2015-081J,2026-07-18T14:02:21.358752,14.58913023,.0002435,47.0057,33.7439,335.1382,24.9386,0,U,41187,999,56466,.775E-4,.195E-5,0
ORBCOMM FM117,2015-081K,2026-07-18T13:13:03.367488,14.58900026,.0002841,47.0021,32.5320,343.0529,17.0261,0,U,41188,999,56470,.7476265E-4,.182E-5,0
ORBCOMM FM116,2015-081L,2026-07-18T19:18:53.777376,14.58908627,.0001663,47.0017,121.1198,239.3508,120.7214,0,U,41189,999,56355,.64433E-4,.134E-5,0
CHUBUSAT-2,2016-012B,2026-07-18T20:09:45.224928,15.21163358,.0008479,30.9970,113.6173,39.8878,320.2385,0,U,41338,999,57324,.12738E-3,.3023E-4,0
CHUBUSAT-3,2016-012C,2026-07-18T21:12:31.851072,15.18785129,.000896,31.0042,123.6804,25.9590,334.1499,0,U,41339,999,57302,.11298E-3,.2517E-4,0
ZIYUAN 3-02 (ZY 3-02),2016-033A,2026-07-18T21:25:28.422048,15.21454758,.0014464,97.3822,275.0577,172.1334,188.0132,0,U,41556,999,56280,.12118E-3,.266E-4,0
CARTOSAT-2C,2016-040A,2026-07-18T19:22:13.314720,15.19278517,.0009318,97.4462,259.3470,34.1348,326.0484,0,U,41599,999,55851,.74653E-4,.1508E-4,0
LAPAN-A3,2016-040E,2026-07-18T20:16:29.450784,15.33290417,.0008275,97.1507,194.9570,259.9954,100.0355,0,U,41603,999,55966,.51204E-4,.1573E-4,0
GAOFEN-3,2016-049A,2026-07-18T20:37:03.691200,14.42218498,.0001761,98.4016,207.1676,83.8125,276.3266,0,U,41727,999,52321,-.22376E-4,-.117E-5,0
PRATHAM,2016-059A,2026-07-18T11:28:40.356768,14.67228361,.00325841,97.8339,194.9636,117.7311,242.7206,0,U,41783,999,52410,.59038132E-4,.288E-5,0
ALSAT-1N,2016-059G,2026-07-18T20:23:55.471776,14.69352119,.0027473,97.8013,201.7926,86.6217,273.8131,0,U,41789,999,52465,.67303E-4,.353E-5,0
CAS-2T & KS-1Q,2016-066G,2026-07-18T19:43:06.860352,14.44774190,.034207,98.3812,275.1958,33.7721,328.4756,0,U,41847,999,50936,.686E-4,.428E-5,0
YUNHAI-1 01,2016-068A,2026-07-18T21:00:09.369216,14.32723408,.0002929,98.5847,210.5885,336.7460,23.3591,0,U,41857,999,50636,.23369E-4,.2E-6,0
RESOURCESAT-2A,2016-074A,2026-07-18T19:31:06.305952,14.21609994,.0002178,98.7515,273.0574,19.5923,340.5337,0,U,41877,999,49879,.10097E-3,.177E-5,0
TANSAT,2016-081A,2026-07-18T20:14:12.734880,14.59972534,.0019637,98.5374,201.0383,208.2761,151.7374,0,U,41898,999,50924,.25621E-4,.72E-6,0
JILIN-1 03,2017-002B,2026-07-18T19:47:22.790112,15.42287847,.0007676,97.1955,206.4795,69.6897,290.5175,0,U,41914,999,52673,.1806E-3,.7695E-4,0
CARTOSAT-2D,2017-008A,2026-07-18T20:07:54.060096,15.19298717,.0006221,97.4085,258.5503,128.3918,231.7876,0,U,41948,999,52238,.95883E-4,.1957E-4,0
